1 45195U 20012T   22365.02043720  .00046402  00000-0  21307-2 0  9996
2 45195  53.0473 222.9305 0003613 126.0667 234.0663 15.19965626159461
1 45195U 20012T   22365.02043720  .00046402  00000-0  21307-2 0  9996
2 45195  53.0473 222.9305 0003613 126.0667 234.0663 15.19965626158527
1 45195U 20012T   23001.00672194  .00036064  00000-0  16580-2 0  9995
2 45195  53.0482 218.4084 0003523 127.6936 232.4379 15.20041164159618
1 45195U 20012T   23001.00672194  .00036064  00000-0  16580-2 0  9995
2 45195  53.0482 218.4084 0003523 127.6936 232.4379 15.20041164158673
1 45195U 20012T   23001.86146329  .00035161  00000-0  16141-2 0  9995
2 45195  53.0486 214.4891 0003477 129.3156 230.8148 15.20104328159747
1 45195U 20012T   23001.99295911  .00034967  00000-0  16049-2 0  9991
2 45195  53.0486 213.8861 0003449 129.5182 230.6118 15.20113297159769
1 45195U 20012T   23002.84766117  .00030683  00000-0  14086-2 0  9997
2 45195  53.0490 209.9663 0003403 131.5506 228.5781 15.20170482159898
1 45195U 20012T   23002.84766117  .00030683  00000-0  14086-2 0  9997
2 45195  53.0490 209.9663 0003403 131.5506 228.5781 15.20170482158954
1 45195U 20012T   23003.57084641  .00028948  00000-0  13283-2 0  9992
2 45195  53.0486 206.6498 0003301 132.8931 227.2341 15.20216723160008
1 45195U 20012T   23003.96530180  .00032032  00000-0  14665-2 0  9993
2 45195  53.0486 204.8408 0003255 133.3327 226.7939 15.20243583160069
1 45195U 20012T   23003.96530180  .00032032  00000-0  14665-2 0  9993
2 45195  53.0486 204.8408 0003255 133.3327 226.7939 15.20243583159124
1 45195U 20012T   23004.81992512  .00050128  00000-0  22755-2 0  9994
2 45195  53.0486 200.9209 0003164 134.7722 225.3531 15.20327105160198
1 45195U 20012T   23004.81992512  .00050128  00000-0  22755-2 0  9994
2 45195  53.0486 200.9209 0003164 134.7722 225.3531 15.20327105159253
1 45195U 20012T   23005.54303096  .00038870  00000-0  17672-2 0  9990
2 45195  53.0485 197.6039 0003023 136.8000 223.3232 15.20390485160306
1 45195U 20012T   23005.80597055  .00040530  00000-0  18403-2 0  9998
2 45195  53.0483 196.3978 0002969 137.2746 222.8480 15.20415310160340
1 45195U 20012T   23005.80597055  .00040530  00000-0  18403-2 0  9998
2 45195  53.0483 196.3978 0002969 137.2746 222.8480 15.20415310159405
1 45195U 20012T   23006.52902844  .00043977  00000-0  19901-2 0  9996
2 45195  53.0488 193.0801 0002862 138.6457 221.4755 15.20494104159515
1 45195U 20012T   23006.92340964  .00045662  00000-0  20629-2 0  9991
2 45195  53.0489 191.2705 0002797 138.7536 221.3671 15.20533941160516
1 45195U 20012T   23007.77786827  .00048740  00000-0  21947-2 0  9991
2 45195  53.0492 187.3496 0002621 140.5092 219.6094 15.20618092159706
1 45195U 20012T   23007.90931936  .00049890  00000-0  22449-2 0  9994
2 45195  53.0493 186.7464 0002609 140.3628 219.7559 15.20631875160662
1 45195U 20012T   23008.36938976  .00045955  00000-0  20676-2 0  9994
2 45195  53.0499 184.6348 0002544 140.8153 219.3027 15.20673167160736
1 45195U 20012T   23008.89516873  .00049896  00000-0  22391-2 0  9994
2 45195  53.0501 182.2217 0002439 141.1651 218.9520 15.20724822160816
1 45195U 20012T   23008.89516873  .00049896  00000-0  22391-2 0  9994
2 45195  53.0501 182.2217 0002439 141.1651 218.9520 15.20724822159870
1 45195U 20012T   23009.74952163  .00043967  00000-0  19719-2 0  9998
2 45195  53.0517 178.2995 0002191 142.1347 217.9802 15.20802790160946
1 45195U 20012T   23009.74952163  .00043967  00000-0  19719-2 0  9998
2 45195  53.0517 178.2995 0002191 142.1347 217.9802 15.20802790160003
1 45195U 20012T   23010.47240035  .00048321  00000-0  21599-2 0  9996
2 45195  53.0518 174.9820 0002146 142.5968 217.5177 15.20874696161058
1 45195U 20012T   23010.47240035  .00048321  00000-0  21599-2 0  9996
2 45195  53.0518 174.9820 0002146 142.5968 217.5177 15.20874696160114
1 45195U 20012T   23011.72092046  .00062338  00000-0  27649-2 0  9998
2 45195  53.0516 169.2498 0001881 143.1541 216.9583 15.21023499161246
1 45195U 20012T   23011.72092046  .00062338  00000-0  27649-2 0  9998
2 45195  53.0516 169.2498 0001881 143.1541 216.9583 15.21023499160302
1 45195U 20012T   23012.70651276  .00057332  00000-0  25379-2 0  9999
2 45195  53.0521 164.7241 0001668 142.8775 217.2336 15.21129604161397
1 45195U 20012T   23012.70651276  .00057332  00000-0  25379-2 0  9999
2 45195  53.0521 164.7241 0001668 142.8775 217.2336 15.21129604160453
1 45195U 20012T   23013.56063112  .00055701  00000-0  24591-2 0  9993
2 45195  53.0517 160.8010 0001273 142.8097 217.2987 15.21234827161523
1 45195U 20012T   23013.69202836  .00057929  00000-0  25548-2 0  9992
2 45195  53.0512 160.1981 0001347 145.6477 214.4606 15.21252263161546
1 45195U 20012T   23014.08621266  .00063155  00000-0  27781-2 0  9997
2 45195  53.0515 158.3874 0001212 142.8144 217.2936 15.21300459160660
1 45195U 20012T   23015.53144212  .00063945  00000-0  27965-2 0  9990
2 45195  53.0508 151.7473 0000940 137.1954 222.9115 15.21493376160884
1 45195U 20012T   23015.59712981  .00062893  00000-0  27504-2 0  9990
2 45195  53.0510 151.4454 0000930 137.8471 222.2596 15.21502761161834
1 45195U 20012T   23015.66281709  .00062290  00000-0  27236-2 0  9990
2 45195  53.0511 151.1434 0000907 138.0386 222.0679 15.21512233161848
1 45195U 20012T   23016.05693262  .00078898  00000-0  34320-2 0  9998
2 45195  53.0509 149.3326 0000819 132.4351 227.6714 15.21573266160962
1 45195U 20012T   23016.58239536  .00064510  00000-0  28082-2 0  9990
2 45195  53.0510 146.9173 0000745 131.8371 228.2688 15.21647019161988
1 45195U 20012T   23016.84511855  .00061307  00000-0  26682-2 0  9991
2 45195  53.0507 145.7093 0000672 130.5545 229.5509 15.21678078162021
1 45195U 20012T   23016.84511855  .00061307  00000-0  26682-2 0  9991
2 45195  53.0507 145.7093 0000672 130.5545 229.5509 15.21678078161086
1 45195U 20012T   23017.37055029  .00050890  00000-0  22171-2 0  9990
2 45195  53.0505 143.2945 0000538 117.5990 242.5060 15.21729559162105
1 45195U 20012T   23017.37055029  .00050890  00000-0  22171-2 0  9990
2 45195  53.0505 143.2945 0000538 117.5990 242.5060 15.21729559161160
1 45195U 20012T   23018.61837180  .00065691  00000-0  28397-2 0  9995
2 45195  53.0511 137.5575 0000436  96.6660 263.4386 15.21876288162290
1 45195U 20012T   23018.61837180  .00065691  00000-0  28397-2 0  9995
2 45195  53.0511 137.5575 0000436  96.6660 263.4386 15.21876288161356
1 45195U 20012T   23019.34073862  .00050413  00000-0  21821-2 0  9996
2 45195  53.0509 134.2369 0000434  76.0974 284.0070 15.21955057162404
1 45195U 20012T   23019.34073862  .00050413  00000-0  21821-2 0  9996
2 45195  53.0509 134.2369 0000434  76.0974 284.0070 15.21955057161469
1 45195U 20012T   23020.45704994  .00049793  00000-0  21479-2 0  9995
2 45195  53.0512 129.1032 0000521  58.8170 301.2877 15.22076794162579
1 45195U 20012T   23020.45704994  .00049793  00000-0  21479-2 0  9995
2 45195  53.0512 129.1032 0000521  58.8170 301.2877 15.22076794161635
1 45195U 20012T   23021.57327388  .00061099  00000-0  26189-2 0  9993
2 45195  53.0515 123.9693 0000618  49.1818 310.9232 15.22199463161802
1 45195U 20012T   23022.55810428  .00048971  00000-0  20991-2 0  9993
2 45195  53.0515 119.4390 0000731  43.8528 316.2526 15.22300061161950
1 45195U 20012T   23023.80546501  .00044625  00000-0  19085-2 0  9994
2 45195  53.0516 113.7000 0000897  41.9031 318.2033 15.22419461162149
1 45195U 20012T   23025.51223377  .00036346  00000-0  15526-2 0  9994
2 45195  53.0504 105.8441 0001149  35.5417 324.5655 15.22554201163340
1 45195U 20012T   23025.51223377  .00036346  00000-0  15526-2 0  9994
2 45195  53.0504 105.8441 0001149  35.5417 324.5655 15.22554201162406
1 45195U 20012T   23026.49684200  .00036284  00000-0  15466-2 0  9992
2 45195  53.0502 101.3118 0001224  37.1269 322.9812 15.22628593163496
1 45195U 20012T   23026.89067158  .00037521  00000-0  15971-2 0  9999
2 45195  53.0502  99.4988 0001255  37.5071 322.6012 15.22660212162613
1 45195U 20012T   23027.35013022  .00031643  00000-0  13490-2 0  9995
2 45195  53.0501  97.3837 0001243  39.3289 320.7797 15.22689642163629
1 45195U 20012T   23027.87521484  .00032394  00000-0  13791-2 0  9996
2 45195  53.0501  94.9663 0001288  39.6007 320.5083 15.22725422163701
1 45195U 20012T   23027.87521484  .00032394  00000-0  13791-2 0  9996
2 45195  53.0501  94.9663 0001288  39.6007 320.5083 15.22725422162766
1 45195U 20012T   23028.46592074  .00032009  00000-0  13614-2 0  9992
2 45195  53.0503  92.2464 0001317  41.2487 318.8608 15.22763528163798
1 45195U 20012T   23028.85971676  .00027830  00000-0  11854-2 0  9994
2 45195  53.0504  90.4333 0001344  41.7065 318.4033 15.22785867163856
1 45195U 20012T   23029.18787539  .00027673  00000-0  11781-2 0  9998
2 45195  53.0503  88.9223 0001354  42.8548 317.2553 15.22806095162966
1 45195U 20012T   23029.84418046  .00025614  00000-0  10906-2 0  9996
2 45195  53.0506  85.9005 0001394  44.4276 315.6832 15.22842547164005
1 45195U 20012T   23030.43484177  .00025485  00000-0  10842-2 0  9996
2 45195  53.0507  83.1813 0001457  45.1514 314.9600 15.22874923164093
1 45195U 20012T   23030.43484177  .00025485  00000-0  10842-2 0  9996
2 45195  53.0507  83.1813 0001457  45.1514 314.9600 15.22874923163159
1 45195U 20012T   23030.82860907  .00024918  00000-0  10598-2 0  9996
2 45195  53.0507  81.3679 0001457  45.5429 314.5686 15.22896322164156
1 45195U 20012T   23031.15674435  .00025573  00000-0  10866-2 0  9998
2 45195  53.0507  79.8568 0001472  46.7489 313.3629 15.22914680164209
1 45195U 20012T   23031.81300107  .00030634  00000-0  12963-2 0  9997
2 45195  53.0511  76.8350 0001518  48.2214 311.8911 15.22958412164303
